{"fetched_at":"2026-07-17T06:38:21.743Z","source":"https://celestrak.org/NORAD/elements/gp.php?NAME=JILIN&FORMAT=JSON","constellation":"jilin-1-early","records":[{"OBJECT_NAME":"JILIN-1","OBJECT_ID":"2015-057D","EPOCH":"2026-07-16T20:46:17.234400","CLASSIFICATION_TYPE":"U","MEAN_MOTION":14.78202799,"ECCENTRICITY":0.0017378,"INCLINATION":97.652,"RA_OF_ASC_NODE":195.7608,"ARG_OF_PERICENTER":161.591,"MEAN_ANOMALY":198.5934,"EPHEMERIS_TYPE":0,"NORAD_CAT_ID":40961,"ELEMENT_SET_NO":999,"REV_AT_EPOCH":57999,"BSTAR":0.000057422,"MEAN_MOTION_DOT":0.00000369,"MEAN_MOTION_DDOT":0},{"OBJECT_NAME":"JILIN-1 03","OBJECT_ID":"2017-002B","EPOCH":"2026-07-16T19:31:03.262944","CLASSIFICATION_TYPE":"U","MEAN_MOTION":15.42256908,"ECCENTRICITY":0.0007796,"INCLINATION":97.1949,"RA_OF_ASC_NODE":204.4945,"ARG_OF_PERICENTER":75.0425,"MEAN_ANOMALY":285.1685,"EPHEMERIS_TYPE":0,"NORAD_CAT_ID":41914,"ELEMENT_SET_NO":999,"REV_AT_EPOCH":52642,"BSTAR":0.00018668,"MEAN_MOTION_DOT":0.00007949,"MEAN_MOTION_DDOT":0},{"OBJECT_NAME":"JILIN-1 04","OBJECT_ID":"2017-074A","EPOCH":"2026-07-16T20:33:06.263136","CLASSIFICATION_TYPE":"U","MEAN_MOTION":15.43160325,"ECCENTRICITY":0.0005241,"INCLINATION":97.4883,"RA_OF_ASC_NODE":308.2782,"ARG_OF_PERICENTER":96.0121,"MEAN_ANOMALY":264.1724,"EPHEMERIS_TYPE":0,"NORAD_CAT_ID":43022,"ELEMENT_SET_NO":999,"REV_AT_EPOCH":47884,"BSTAR":0.0001957,"MEAN_MOTION_DOT":0.00008584,"MEAN_MOTION_DDOT":0},{"OBJECT_NAME":"JILIN-1 05","OBJECT_ID":"2017-074B","EPOCH":"2026-07-16T19:11:11.000832","CLASSIFICATION_TYPE":"U","MEAN_MOTION":15.34300759,"ECCENTRICITY":0.0006515,"INCLINATION":97.4885,"RA_OF_ASC_NODE":304.3654,"ARG_OF_PERICENTER":120.2306,"MEAN_ANOMALY":239.9583,"EPHEMERIS_TYPE":0,"NORAD_CAT_ID":43023,"ELEMENT_SET_NO":999,"REV_AT_EPOCH":47854,"BSTAR":0.00014207,"MEAN_MOTION_DOT":0.00004638,"MEAN_MOTION_DDOT":0},{"OBJECT_NAME":"JILIN-1 06","OBJECT_ID":"2017-074C","EPOCH":"2026-07-16T20:10:51.424608","CLASSIFICATION_TYPE":"U","MEAN_MOTION":15.34007659,"ECCENTRICITY":0.0008185,"INCLINATION":97.481,"RA_OF_ASC_NODE":301.377,"ARG_OF_PERICENTER":129.1949,"MEAN_ANOMALY":231.0022,"EPHEMERIS_TYPE":0,"NORAD_CAT_ID":43024,"ELEMENT_SET_NO":999,"REV_AT_EPOCH":47838,"BSTAR":0.00010834,"MEAN_MOTION_DOT":0.00003486,"MEAN_MOTION_DDOT":0},{"OBJECT_NAME":"JILIN-1 07","OBJECT_ID":"2018-008E","EPOCH":"2026-07-16T19:40:31.505376","CLASSIFICATION_TYPE":"U","MEAN_MOTION":15.35180377,"ECCENTRICITY":0.0006582,"INCLINATION":97.1764,"RA_OF_ASC_NODE":216.9663,"ARG_OF_PERICENTER":321.0724,"MEAN_ANOMALY":39.0045,"EPHEMERIS_TYPE":0,"NORAD_CAT_ID":43159,"ELEMENT_SET_NO":999,"REV_AT_EPOCH":46954,"BSTAR":0.00014512,"MEAN_MOTION_DOT":0.0000488,"MEAN_MOTION_DDOT":0},{"OBJECT_NAME":"JILIN-1 08","OBJECT_ID":"2018-008F","EPOCH":"2026-07-16T20:11:08.531808","CLASSIFICATION_TYPE":"U","MEAN_MOTION":15.34021183,"ECCENTRICITY":0.0005112,"INCLINATION":97.1802,"RA_OF_ASC_NODE":216.2696,"ARG_OF_PERICENTER":346.2202,"MEAN_ANOMALY":13.8901,"EPHEMERIS_TYPE":0,"NORAD_CAT_ID":43160,"ELEMENT_SET_NO":999,"REV_AT_EPOCH":46949,"BSTAR":0.00010181,"MEAN_MOTION_DOT":0.00003275,"MEAN_MOTION_DDOT":0},{"OBJECT_NAME":"JILIN-1 09","OBJECT_ID":"2019-005B","EPOCH":"2026-07-16T20:34:50.515104","CLASSIFICATION_TYPE":"U","MEAN_MOTION":15.20749168,"ECCENTRICITY":0.0002174,"INCLINATION":97.4747,"RA_OF_ASC_NODE":292.572,"ARG_OF_PERICENTER":32.2754,"MEAN_ANOMALY":327.8614,"EPHEMERIS_TYPE":0,"NORAD_CAT_ID":43943,"ELEMENT_SET_NO":999,"REV_AT_EPOCH":41365,"BSTAR":0.00011182,"MEAN_MOTION_DOT":0.00002391,"MEAN_MOTION_DDOT":0},{"OBJECT_NAME":"JILIN-1 10","OBJECT_ID":"2019-005E","EPOCH":"2026-07-16T20:00:12.659040","CLASSIFICATION_TYPE":"U","MEAN_MOTION":15.26017438,"ECCENTRICITY":0.0008729,"INCLINATION":97.48,"RA_OF_ASC_NODE":296.6452,"ARG_OF_PERICENTER":164.4213,"MEAN_ANOMALY":195.7295,"EPHEMERIS_TYPE":0,"NORAD_CAT_ID":43946,"ELEMENT_SET_NO":999,"REV_AT_EPOCH":41383,"BSTAR":0.00012341,"MEAN_MOTION_DOT":0.00003103,"MEAN_MOTION_DDOT":0}]}
